IRIDIUM 166             
1 43570U 18061B   26012.71123236  .00000130  00000+0  39203-4 0  9995
2 43570  86.3995 121.7699 0002015  92.3640 267.7786 14.34217730391118
IRIDIUM 158             
1 43571U 18061C   26012.74928826  .00000329  00000+0  11057-3 0  9993
2 43571  86.3993 121.7638 0002244 101.0928 259.0521 14.34218445391082
IRIDIUM 165             
1 43572U 18061D   26012.70488799  .00000279  00000+0  92493-4 0  9998
2 43572  86.3995 121.8258 0002020  94.0696 266.0731 14.34219146391102
IRIDIUM 155             
1 43573U 18061E   26012.73660296  .00000167  00000+0  52402-4 0  9998
2 43573  86.3984 121.6891 0002236  95.7055 264.4396 14.34218197391078
IRIDIUM 154             
1 43574U 18061F   26012.85711175  .00000069  00000+0  17688-4 0  9993
2 43574  86.3998 121.7649 0002054  95.1882 264.9548 14.34217990391148
IRIDIUM 163             
1 43575U 18061G   26012.83808362  .00000037  00000+0  61616-5 0  9993
2 43575  86.3990 121.6930 0002158 101.2390 258.9049 14.34218067391113
IRIDIUM 156             
1 43576U 18061H   26012.74294561  .00000322  00000+0  10788-3 0  9993
2 43576  86.3991 121.7399 0002290  94.0644 266.0814 14.34218049391090
IRIDIUM 164             
1 43577U 18061J   26012.72391733  .00000073  00000+0  19133-4 0  9998
2 43577  86.3993 121.7857 0001974  93.3562 266.7860 14.34218006391137
